      2.10          N: GNSS NAV DATA                        RINEX VERSION / TYPE
fic2rin                                 03/03/2022 00:17:37 PGM / RUN BY / DATE
                                                            END OF HEADER
10 22  3  2 22  0  0.0-3.354097716510e-04-1.102762325900e-11 0.000000000000e+00
    1.400000000000e+01-5.596875000000e+01 4.514116602504e-09-1.531577523620e+00
   -2.956017851830e-06 7.540938444436e-03 1.834705471992e-06 5.153676465988e+03
    3.384000000000e+05 1.583248376846e-07-1.129964494391e+00-1.564621925354e-07
    9.723120245386e-01 3.507500000000e+02-2.505577720512e+00-8.310346159274e-09
   -2.703684047864e-10 1.000000000000e+00 2.199000000000e+03 0.000000000000e+00
    2.400000000000e+00 0.000000000000e+00 2.328306436539e-09 1.400000000000e+01
    3.312000000000e+05 4.000000000000e+00
 5 22  3  2 22  0  0.0-7.328856736422e-05-1.364242052659e-12 0.000000000000e+00
    6.500000000000e+01-5.421875000000e+01 4.963778189857e-09-3.118851179505e+00
   -2.779066562653e-06 5.861112498678e-03 1.454725861549e-06 5.153670890808e+03
    3.384000000000e+05 2.980232238770e-08-1.167803875536e+00 1.117587089539e-08
    9.594698537706e-01 3.517187500000e+02 1.009209827720e+00-8.545355948376e-09
   -2.592965150264e-10 1.000000000000e+00 2.199000000000e+03 0.000000000000e+00
    2.400000000000e+00 0.000000000000e+00-1.117587089539e-08 6.500000000000e+01
    3.312000000000e+05 4.000000000000e+00
29 22  3  2 22  0  0.0-4.866602830589e-04-4.547473508865e-12 0.000000000000e+00
    2.300000000000e+01 2.656250000000e+00 3.863732368533e-09 2.858927319490e+00
    2.905726432800e-07 1.874316367321e-03 1.380033791065e-05 5.153750583649e+03
    3.384000000000e+05 1.862645149231e-08 3.136156991287e+00 2.980232238770e-08
    9.820443489233e-01 1.258125000000e+02 2.244812297854e+00-7.605673949706e-09
   -3.292994309288e-10 1.000000000000e+00 2.199000000000e+03 0.000000000000e+00
    2.400000000000e+00 0.000000000000e+00-1.024454832077e-08 2.300000000000e+01
    3.312000000000e+05 4.000000000000e+00
15 22  3  2 22  0  0.0-7.979013025761e-05 2.955857780762e-12 0.000000000000e+00
    1.500000000000e+01-1.237500000000e+02 4.859845289206e-09 1.768291262280e+00
   -6.455928087234e-06 1.394053467084e-02 1.122243702412e-05 5.153759260178e+03
    3.384000000000e+05-1.937150955200e-07-2.053387306452e-01-2.551823854446e-07
    9.304824041327e-01 1.512812500000e+02 1.078474147737e+00-8.340704566681e-09
   -2.450102056585e-10 1.000000000000e+00 2.199000000000e+03 0.000000000000e+00
    2.400000000000e+00 0.000000000000e+00-1.071020960808e-08 1.500000000000e+01
    3.312000000000e+05 4.000000000000e+00
 8 22  3  2 22  0  0.0-5.828123539686e-05-1.477928890381e-12 0.000000000000e+00
    5.800000000000e+01-4.031250000000e+00 4.207675266564e-09 2.755502321869e+00
   -1.955777406693e-07 7.356419810094e-03 1.290999352932e-05 5.153734413147e+03
    3.384000000000e+05-1.136213541031e-07 3.041044791585e+00-9.313225746155e-09
    9.648531918826e-01 1.341875000000e+02 1.170562151984e-01-7.668890868658e-09
   -3.725155167665e-10 1.000000000000e+00 2.199000000000e+03 0.000000000000e+00
    3.400000000000e+00 0.000000000000e+00 5.122274160385e-09 5.800000000000e+01
    3.312000000000e+05 4.000000000000e+00
 9 22  3  2 22  0  0.0-3.517526201904e-04 1.818989403546e-12 0.000000000000e+00
    3.400000000000e+01-8.256250000000e+01 4.225890311008e-09 3.135539423346e+00
   -4.224479198456e-06 2.211355022155e-03 1.256726682186e-05 5.153621717453e+03
    3.384000000000e+05-1.862645149231e-08-9.893539858790e-02-2.235174179077e-08
    9.546704803718e-01 1.339375000000e+02 1.879981682680e+00-7.843183842946e-09
   -1.528635102359e-10 1.000000000000e+00 2.199000000000e+03 0.000000000000e+00
    2.400000000000e+00 0.000000000000e+00 1.396983861923e-09 3.400000000000e+01
    3.312000000000e+05 4.000000000000e+00
 7 22  3  2 22  0  0.0 3.137984313071e-04 2.273736754432e-12 0.000000000000e+00
    1.000000000000e+02 6.578125000000e+01 5.007351433429e-09-1.625531064408e-01
    3.598630428314e-06 1.561878377106e-02 8.160248398781e-06 5.153684581757e+03
    3.384000000000e+05 3.539025783539e-08 9.725381770445e-01 2.738088369370e-07
    9.509248907529e-01 2.205625000000e+02-2.288641137718e+00-8.569642674301e-09
    7.339591437730e-10 1.000000000000e+00 2.199000000000e+03 0.000000000000e+00
    2.400000000000e+00 0.000000000000e+00-1.117587089539e-08 1.000000000000e+02
    3.312000000000e+05 4.000000000000e+00
 6 22  3  2 22  0  0.0 2.184552140534e-04 1.239186531166e-11 0.000000000000e+00
    9.400000000000e+01 1.211250000000e+02 4.035882396416e-09 8.134771657777e-01
    6.115064024925e-06 2.691543544643e-03 6.930902600288e-06 5.153677947998e+03
    3.384000000000e+05 4.097819328308e-08-2.170818214469e+00-5.401670932770e-08
    9.863410475780e-01 2.594375000000e+02-9.337673106080e-01-8.028191549260e-09
    3.678724662220e-10 1.000000000000e+00 2.199000000000e+03 0.000000000000e+00
    2.400000000000e+00 0.000000000000e+00 3.725290298462e-09 9.400000000000e+01
    3.312000000000e+05 4.000000000000e+00
11 22  3  2 22  0  0.0-7.321918383241e-05 1.034550223267e-11 0.000000000000e+00
    2.340000000000e+02 1.267187500000e+02 4.631621497055e-09 2.700849792938e+00
    6.545335054398e-06 2.739279298112e-04 6.306916475296e-06 5.153776859283e+03
    3.384000000000e+05 2.048909664154e-08-2.119139091403e+00-1.117587089539e-08
    9.620540561330e-01 2.597500000000e+02 2.787235241570e+00-8.313560578882e-09
    3.885876148053e-10 1.000000000000e+00 2.199000000000e+03 0.000000000000e+00
    3.840000000000e+02 6.300000000000e+01-8.847564458847e-09 2.340000000000e+02
    3.312000000000e+05 4.000000000000e+00
24 22  3  2 22  0  0.0 2.712230198085e-04-2.728484105319e-12 0.000000000000e+00
    1.400000000000e+01 5.687500000000e+01 5.217717338871e-09 8.034215101650e-01
    2.915039658546e-06 1.235176320188e-02 9.525567293167e-06 5.153696590424e+03
    3.384000000000e+05-6.891787052155e-08 8.895162681973e-01 1.024454832077e-07
    9.344839239549e-01 1.825000000000e+02 8.099684460026e-01-8.567142570161e-09
    5.914532078287e-10 1.000000000000e+00 2.199000000000e+03 0.000000000000e+00
    2.400000000000e+00 0.000000000000e+00 2.328306436539e-09 1.400000000000e+01
    3.312000000000e+05 4.000000000000e+00
22 22  3  2 22  0  0.0 2.215518616140e-04 5.798028723802e-12 0.000000000000e+00
    3.400000000000e+01-7.978125000000e+01 3.939806965917e-09 2.559008629461e+00
   -4.058703780174e-06 1.299776136875e-02 1.271814107895e-05 5.153672019958e+03
    3.384000000000e+05 1.415610313416e-07 2.418883841935e-03-1.005828380585e-07
    9.618379728923e-01 1.329375000000e+02-1.870348885001e+00-7.529956510056e-09
    2.357241045694e-11 1.000000000000e+00 2.199000000000e+03 0.000000000000e+00
    2.400000000000e+00 0.000000000000e+00-9.778887033463e-09 3.400000000000e+01
    3.312000000000e+05 4.000000000000e+00
20 22  3  2 22  0  0.0 5.164714530110e-04-1.136868377216e-13 0.000000000000e+00
    1.800000000000e+01-2.543750000000e+01 5.387367262614e-09 1.505864902415e+00
   -1.240521669388e-06 5.107179866172e-03 9.015202522278e-07 5.153753671646e+03
    3.384000000000e+05-9.313225746155e-08-1.282169148017e+00 1.098960638046e-07
    9.416532714556e-01 3.539687500000e+02-3.138085835608e+00-8.841082552290e-09
   -2.592965150264e-10 1.000000000000e+00 2.199000000000e+03 0.000000000000e+00
    2.400000000000e+00 0.000000000000e+00-8.381903171539e-09 1.800000000000e+01
    3.312000000000e+05 4.000000000000e+00
12 22  3  2 22  0  0.0-1.789787784219e-04-5.684341886081e-12 0.000000000000e+00
    7.000000000000e+01-3.815625000000e+01 5.005208487024e-09-8.080720023910e-01
   -1.808628439903e-06 8.723816950805e-03 5.202367901802e-06 5.153580698013e+03
    3.384000000000e+05-4.470348358154e-08 2.085798758279e+00 1.396983861923e-07
    9.698092291785e-01 2.895625000000e+02 1.252312869869e+00-8.428208211559e-09
   -3.060841782060e-10 1.000000000000e+00 2.199000000000e+03 0.000000000000e+00
    2.400000000000e+00 0.000000000000e+00-1.257285475731e-08 7.000000000000e+01
    3.312000000000e+05 4.000000000000e+00
16 22  3  2 22  0  0.0-4.760227166116e-04-4.547473508865e-12 0.000000000000e+00
    6.300000000000e+01-5.025000000000e+01 4.846630453041e-09-2.663262605703e+00
   -2.846121788025e-06 1.279462524690e-02 5.172565579414e-06 5.153606496811e+03
    3.384000000000e+05 1.005828380585e-07 2.104413170764e+00-3.185123205185e-07
    9.697568347675e-01 2.849375000000e+02 7.132581809233e-01-8.188555371914e-09
   -3.057270204718e-10 1.000000000000e+00 2.199000000000e+03 0.000000000000e+00
    2.400000000000e+00 0.000000000000e+00-1.024454832077e-08 6.300000000000e+01
    3.312000000000e+05 4.000000000000e+00
31 22  3  2 22  0  0.0-1.671565696597e-04-1.705302565824e-12 0.000000000000e+00
    1.000000000000e+02 5.887500000000e+01 4.759126808163e-09-6.164872720380e-01
    3.317371010780e-06 1.044043980073e-02 7.851049304008e-06 5.153697425842e+03
    3.384000000000e+05 1.471489667892e-07 9.906935521687e-01 1.862645149231e-08
    9.551310757403e-01 2.209375000000e+02 3.789702757817e-01-8.316060683022e-09
    7.143154683922e-10 1.000000000000e+00 2.199000000000e+03 0.000000000000e+00
    3.400000000000e+00 0.000000000000e+00-1.350417733192e-08 1.000000000000e+02
    3.312000000000e+05 4.000000000000e+00
32 22  3  2 22  0  0.0-7.735053077340e-05-7.048583938740e-12 0.000000000000e+00
    5.100000000000e+01-9.300000000000e+01 4.071598169835e-09-2.930654590830e+00
   -4.770234227180e-06 5.704258568585e-03 1.222454011440e-05 5.153581592560e+03
    3.384000000000e+05-4.656612873077e-08-8.767004431210e-02-3.352761268616e-08
    9.585226289435e-01 1.432187500000e+02-2.331986450973e+00-7.717107162775e-09
   -5.035924052165e-11 1.000000000000e+00 2.199000000000e+03 0.000000000000e+00
    2.400000000000e+00 0.000000000000e+00 4.656612873077e-10 5.100000000000e+01
    3.312000000000e+05 4.000000000000e+00
